[
  {
    "OBJECT_NAME": "STARLINK-1500",
    "OBJECT_ID": "20038Q",
    "EPOCH": "2025-11-11T05:26:55.712544",
    "MEAN_MOTION": 15.28109005,
    "ECCENTRICITY": 0.0001474,
    "INCLINATION": 53.0392,
    "RA_OF_ASC_NODE": 25.5863,
    "ARG_OF_PERICENTER": 238.6291,
    "MEAN_ANOMALY": 121.4563,
    "EPHEMERIS_TYPE": 0,
    "CLASSIFICATION_TYPE": "U",
    "NORAD_CAT_ID": 45744,
    "ELEMENT_SET_NO": 999,
    "REV_AT_EPOCH": 29866,
    "BSTAR": 0.0010366,
    "MEAN_MOTION_DOT": 0.00028551,
    "MEAN_MOTION_DDOT": 0.0,
    "TLE_LINE1": "1 45744U 20038Q   25315.22703371  .00028551  00000+0  10366-2 0  9996",
    "TLE_LINE2": "2 45744  53.0392  25.5863 0001474 238.6291 121.4563 15.28109005298668",
    "COMMENT": "Grouped by shell and plane from TLE"
  },
  {
    "OBJECT_NAME": "STARLINK-1820",
    "OBJECT_ID": "20073AZ",
    "EPOCH": "2025-11-11T04:34:14.206080",
    "MEAN_MOTION": 15.43413204,
    "ECCENTRICITY": 0.0009208,
    "INCLINATION": 53.0546,
    "RA_OF_ASC_NODE": 21.4848,
    "ARG_OF_PERICENTER": 278.2856,
    "MEAN_ANOMALY": 81.7105,
    "EPHEMERIS_TYPE": 0,
    "CLASSIFICATION_TYPE": "U",
    "NORAD_CAT_ID": 46717,
    "ELEMENT_SET_NO": 999,
    "REV_AT_EPOCH": 27972,
    "BSTAR": 0.002316,
    "MEAN_MOTION_DOT": 0.00106308,
    "MEAN_MOTION_DDOT": 0.0,
    "TLE_LINE1": "1 46717U 20073AZ  25315.19044220  .00106308  00000+0  23160-2 0  9996",
    "TLE_LINE2": "2 46717  53.0546  21.4848 0009208 278.2856  81.7105 15.43413204279720",
    "COMMENT": "Grouped by shell and plane from TLE"
  },
  {
    "OBJECT_NAME": "STARLINK-1826",
    "OBJECT_ID": "20073BF",
    "EPOCH": "2025-11-11T05:09:50.809824",
    "MEAN_MOTION": 15.32743605,
    "ECCENTRICITY": 0.000345,
    "INCLINATION": 53.0557,
    "RA_OF_ASC_NODE": 25.7205,
    "ARG_OF_PERICENTER": 19.1423,
    "MEAN_ANOMALY": 340.9706,
    "EPHEMERIS_TYPE": 0,
    "CLASSIFICATION_TYPE": "U",
    "NORAD_CAT_ID": 46723,
    "ELEMENT_SET_NO": 999,
    "REV_AT_EPOCH": 27966,
    "BSTAR": 0.0023788999999999998,
    "MEAN_MOTION_DOT": 0.00076705,
    "MEAN_MOTION_DDOT": 0.0,
    "TLE_LINE1": "1 46723U 20073BF  25315.21517141  .00076705  00000+0  23789-2 0  9997",
    "TLE_LINE2": "2 46723  53.0557  25.7205 0003450  19.1423 340.9706 15.32743605279667",
    "COMMENT": "Grouped by shell and plane from TLE"
  },
  {
    "OBJECT_NAME": "STARLINK-1830",
    "OBJECT_ID": "20073BK",
    "EPOCH": "2025-11-11T07:00:29.979360",
    "MEAN_MOTION": 15.31325563,
    "ECCENTRICITY": 0.0005107,
    "INCLINATION": 53.0541,
    "RA_OF_ASC_NODE": 24.9452,
    "ARG_OF_PERICENTER": 2.1287,
    "MEAN_ANOMALY": 357.9734,
    "EPHEMERIS_TYPE": 0,
    "CLASSIFICATION_TYPE": "U",
    "NORAD_CAT_ID": 46727,
    "ELEMENT_SET_NO": 999,
    "REV_AT_EPOCH": 27968,
    "BSTAR": 0.0023114000000000003,
    "MEAN_MOTION_DOT": 0.00071233,
    "MEAN_MOTION_DDOT": 0.0,
    "TLE_LINE1": "1 46727U 20073BK  25315.29201365  .00071233  00000+0  23114-2 0  9990",
    "TLE_LINE2": "2 46727  53.0541  24.9452 0005107   2.1287 357.9734 15.31325563279689",
    "COMMENT": "Grouped by shell and plane from TLE"
  },
  {
    "OBJECT_NAME": "STARLINK-2171",
    "OBJECT_ID": "21017AJ",
    "EPOCH": "2025-11-11T04:44:54.773088",
    "MEAN_MOTION": 15.38978955,
    "ECCENTRICITY": 0.0002415,
    "INCLINATION": 53.0556,
    "RA_OF_ASC_NODE": 20.3536,
    "ARG_OF_PERICENTER": 24.9628,
    "MEAN_ANOMALY": 335.1492,
    "EPHEMERIS_TYPE": 0,
    "CLASSIFICATION_TYPE": "U",
    "NORAD_CAT_ID": 47754,
    "ELEMENT_SET_NO": 999,
    "REV_AT_EPOCH": 25992,
    "BSTAR": 0.0026667,
    "MEAN_MOTION_DOT": 0.00105519,
    "MEAN_MOTION_DDOT": 0.0,
    "TLE_LINE1": "1 47754U 21017AJ  25315.19785617  .00105519  00000+0  26667-2 0  9997",
    "TLE_LINE2": "2 47754  53.0556  20.3536 0002415  24.9628 335.1492 15.38978955259929",
    "COMMENT": "Grouped by shell and plane from TLE"
  },
  {
    "OBJECT_NAME": "STARLINK-5190",
    "OBJECT_ID": "22136AT",
    "EPOCH": "2025-11-11T05:33:33.976800",
    "MEAN_MOTION": 15.52476757,
    "ECCENTRICITY": 0.0003696,
    "INCLINATION": 53.1861,
    "RA_OF_ASC_NODE": 29.1494,
    "ARG_OF_PERICENTER": 339.8772,
    "MEAN_ANOMALY": 20.2092,
    "EPHEMERIS_TYPE": 0,
    "CLASSIFICATION_TYPE": "U",
    "NORAD_CAT_ID": 54092,
    "ELEMENT_SET_NO": 999,
    "REV_AT_EPOCH": 17074,
    "BSTAR": 0.00066333,
    "MEAN_MOTION_DOT": 0.00041054,
    "MEAN_MOTION_DDOT": 0.0,
    "TLE_LINE1": "1 54092U 22136AT  25315.23164325  .00041054  00000+0  66333-3 0  9993",
    "TLE_LINE2": "2 54092  53.1861  29.1494 0003696 339.8772  20.2092 15.52476757170741",
    "COMMENT": "Grouped by shell and plane from TLE"
  },
  {
    "OBJECT_NAME": "STARLINK-30320",
    "OBJECT_ID": "23124R",
    "EPOCH": "2025-11-11T05:51:08.830080",
    "MEAN_MOTION": 15.30207692,
    "ECCENTRICITY": 0.0001448,
    "INCLINATION": 53.16,
    "RA_OF_ASC_NODE": 24.2213,
    "ARG_OF_PERICENTER": 98.8066,
    "MEAN_ANOMALY": 261.3099,
    "EPHEMERIS_TYPE": 0,
    "CLASSIFICATION_TYPE": "U",
    "NORAD_CAT_ID": 57678,
    "ELEMENT_SET_NO": 999,
    "REV_AT_EPOCH": 12561,
    "BSTAR": 0.00036108,
    "MEAN_MOTION_DOT": 0.00010352,
    "MEAN_MOTION_DDOT": 0.0,
    "TLE_LINE1": "1 57678U 23124R   25315.24385220  .00010352  00000+0  36108-3 0  9998",
    "TLE_LINE2": "2 57678  53.1600  24.2213 0001448  98.8066 261.3099 15.30207692125618",
    "COMMENT": "Grouped by shell and plane from TLE"
  },
  {
    "OBJECT_NAME": "STARLINK-30372",
    "OBJECT_ID": "23134U",
    "EPOCH": "2025-11-11T05:51:26.088480",
    "MEAN_MOTION": 15.27595451,
    "ECCENTRICITY": 0.000235,
    "INCLINATION": 43.0062,
    "RA_OF_ASC_NODE": 27.2979,
    "ARG_OF_PERICENTER": 281.3407,
    "MEAN_ANOMALY": 78.7181,
    "EPHEMERIS_TYPE": 0,
    "CLASSIFICATION_TYPE": "U",
    "NORAD_CAT_ID": 57789,
    "ELEMENT_SET_NO": 999,
    "REV_AT_EPOCH": 12275,
    "BSTAR": 0.00017987,
    "MEAN_MOTION_DOT": 4.693e-05,
    "MEAN_MOTION_DDOT": 0.0,
    "TLE_LINE1": "1 57789U 23134U   25315.24405195  .00004693  00000+0  17987-3 0  9991",
    "TLE_LINE2": "2 57789  43.0062  27.2979 0002350 281.3407  78.7181 15.27595451122757",
    "COMMENT": "Grouped by shell and plane from TLE"
  },
  {
    "OBJECT_NAME": "STARLINK-31064",
    "OBJECT_ID": "23203P",
    "EPOCH": "2025-11-11T04:22:33.695616",
    "MEAN_MOTION": 15.25913256,
    "ECCENTRICITY": 0.0001937,
    "INCLINATION": 43.0053,
    "RA_OF_ASC_NODE": 20.1163,
    "ARG_OF_PERICENTER": 278.9437,
    "MEAN_ANOMALY": 81.1195,
    "EPHEMERIS_TYPE": 0,
    "CLASSIFICATION_TYPE": "U",
    "NORAD_CAT_ID": 58631,
    "ELEMENT_SET_NO": 999,
    "REV_AT_EPOCH": 10656,
    "BSTAR": 0.00044251,
    "MEAN_MOTION_DOT": 0.00011336,
    "MEAN_MOTION_DDOT": 0.0,
    "TLE_LINE1": "1 58631U 23203P   25315.18233444  .00011336  00000+0  44251-3 0  9990",
    "TLE_LINE2": "2 58631  43.0053  20.1163 0001937 278.9437  81.1195 15.25913256106565",
    "COMMENT": "Grouped by shell and plane from TLE"
  },
  {
    "OBJECT_NAME": "STARLINK-31078",
    "OBJECT_ID": "23203W",
    "EPOCH": "2025-11-10T12:28:25.315680",
    "MEAN_MOTION": 15.27584494,
    "ECCENTRICITY": 8.82e-05,
    "INCLINATION": 43.0027,
    "RA_OF_ASC_NODE": 20.2978,
    "ARG_OF_PERICENTER": 176.3536,
    "MEAN_ANOMALY": 183.7322,
    "EPHEMERIS_TYPE": 0,
    "CLASSIFICATION_TYPE": "U",
    "NORAD_CAT_ID": 58638,
    "ELEMENT_SET_NO": 999,
    "REV_AT_EPOCH": 10533,
    "BSTAR": 0.0,
    "MEAN_MOTION_DOT": -1.113e-05,
    "MEAN_MOTION_DDOT": 0.0,
    "TLE_LINE1": "1 58638U 23203W   25314.51973745 -.00001113  00000+0 -30936-4 0  9998",
    "TLE_LINE2": "2 58638  43.0027  20.2978 0000882 176.3536 183.7322 15.27584494105332",
    "COMMENT": "Grouped by shell and plane from TLE"
  },
  {
    "OBJECT_NAME": "STARLINK-31131",
    "OBJECT_ID": "23211G",
    "EPOCH": "2025-11-11T08:00:03.000384",
    "MEAN_MOTION": 15.27561915,
    "ECCENTRICITY": 0.0001448,
    "INCLINATION": 43.0035,
    "RA_OF_ASC_NODE": 22.8921,
    "ARG_OF_PERICENTER": 279.2925,
    "MEAN_ANOMALY": 196.1156,
    "EPHEMERIS_TYPE": 0,
    "CLASSIFICATION_TYPE": "U",
    "NORAD_CAT_ID": 58673,
    "ELEMENT_SET_NO": 999,
    "REV_AT_EPOCH": 582,
    "BSTAR": 0.0,
    "MEAN_MOTION_DOT": -2.617e-05,
    "MEAN_MOTION_DDOT": 0.0,
    "TLE_LINE1": "1 58673U 23211G   25315.33336806 -.00002617  00000+0 -85635-4 0  9994",
    "TLE_LINE2": "2 58673  43.0035  22.8921 0001448 279.2925 196.1156 15.27561915  5829",
    "COMMENT": "Grouped by shell and plane from TLE"
  },
  {
    "OBJECT_NAME": "STARLINK-31167",
    "OBJECT_ID": "24005S",
    "EPOCH": "2025-11-11T05:02:09.259296",
    "MEAN_MOTION": 15.27582761,
    "ECCENTRICITY": 4.51e-05,
    "INCLINATION": 42.9986,
    "RA_OF_ASC_NODE": 23.4156,
    "ARG_OF_PERICENTER": 256.5322,
    "MEAN_ANOMALY": 103.5479,
    "EPHEMERIS_TYPE": 0,
    "CLASSIFICATION_TYPE": "U",
    "NORAD_CAT_ID": 58744,
    "ELEMENT_SET_NO": 999,
    "REV_AT_EPOCH": 10408,
    "BSTAR": 0.00013815,
    "MEAN_MOTION_DOT": 3.542e-05,
    "MEAN_MOTION_DDOT": 0.0,
    "TLE_LINE1": "1 58744U 24005S   25315.20982939  .00003542  00000+0  13815-3 0  9991",
    "TLE_LINE2": "2 58744  42.9986  23.4156 0000451 256.5322 103.5479 15.27582761104080",
    "COMMENT": "Grouped by shell and plane from TLE"
  },
  {
    "OBJECT_NAME": "STARLINK-31263",
    "OBJECT_ID": "24017G",
    "EPOCH": "2025-11-11T05:08:38.260608",
    "MEAN_MOTION": 15.30211394,
    "ECCENTRICITY": 0.0001344,
    "INCLINATION": 53.1609,
    "RA_OF_ASC_NODE": 24.2247,
    "ARG_OF_PERICENTER": 70.5048,
    "MEAN_ANOMALY": 289.6098,
    "EPHEMERIS_TYPE": 0,
    "CLASSIFICATION_TYPE": "U",
    "NORAD_CAT_ID": 58832,
    "ELEMENT_SET_NO": 999,
    "REV_AT_EPOCH": 10217,
    "BSTAR": 0.00015857,
    "MEAN_MOTION_DOT": 4.341e-05,
    "MEAN_MOTION_DDOT": 0.0,
    "TLE_LINE1": "1 58832U 24017G   25315.21433172  .00004341  00000+0  15857-3 0  9999",
    "TLE_LINE2": "2 58832  53.1609  24.2247 0001344  70.5048 289.6098 15.30211394102171",
    "COMMENT": "Grouped by shell and plane from TLE"
  }
]